BEIDOU-3 M14 (C33)      
1 43623U 18072B   26134.03606905 -.00000037  00000+0  00000+0 0  9990
2 43623  56.5980  63.7808 0006648 347.7176  12.2477  1.86231503 52014
BEIDOU-3 M16 (C35)      
1 43647U 18078A   26138.48750758 -.00000056  00000+0  00000+0 0  9992
2 43647  54.1181 301.0266 0007821  40.0003 320.0297  1.86232202 51600
BEIDOU-3 M15 (C34)      
1 43648U 18078B   26138.61680616 -.00000056  00000+0  00000+0 0  9993
2 43648  54.1140 301.0228 0004919  52.9460 307.0716  1.86232306 51626
BEIDOU-3 M17 (C36)      
1 43706U 18093A   26138.35612889  .00000068  00000+0  00000+0 0  9995
2 43706  54.1671 183.3085 0009685 290.9034 146.3367  1.86228319 50981
BEIDOU-3 M18 (C37)      
1 43707U 18093B   26139.17793441  .00000056  00000+0  00000+0 0  9998
2 43707  54.1676 183.2730 0007562 321.1548  38.8724  1.86226713 50991
BEIDOU-3 IGSO-1 (C38)   
1 44204U 19023A   26132.76772565 -.00000227  00000+0  00000+0 0  9998
2 44204  58.6468  38.0171 0023856 234.3090 349.8662  1.00250503  6851
BEIDOU-3 IGSO-2 (C39)   
1 44337U 19035A   26139.63539042 -.00000079  00000+0  00000+0 0  9997
2 44337  55.2397 159.1126 0039530 216.4700 210.4277  1.00275192 25387
BEIDOU-3 M23 (C45)      
1 44543U 19061B   26139.39368032  .00000053  00000+0  00000+0 0  9998
2 44543  54.3929 183.6676 0005334 341.1368  29.0987  1.86227410 45265
BEIDOU-3 IGSO-3 (C40)   
1 44709U 19073A   26120.85038409 -.00000212  00000+0  00000+0 0  9996
2 44709  54.8842 281.4069 0042404 188.8195 170.9972  1.00251230 23982
BEIDOU-3 M22 (C44)      
1 44793U 19078A   26138.54935259 -.00000056  00000+0  00000+0 0  9994
2 44793  53.9642 300.8701 0006964  48.9586 311.0741  1.86227153 44091
BEIDOU-3 M21 (C43)      
1 44794U 19078B   26136.54150291 -.00000055  00000+0  00000+0 0  9997
2 44794  53.9390 300.9027 0004900  45.2623 314.7514  1.86227806 44064
BEIDOU-3 M19 (C41)      
1 44864U 19090A   26139.13431775 -.00000042  00000+0  00000+0 0  9992
2 44864  56.5348  63.7509 0018988 297.0126 198.4217  1.86231245 43696
BEIDOU-3 M20 (C42)      
1 44865U 19090B   26137.47677451 -.00000044  00000+0  00000+0 0  9993
2 44865  56.5346  63.8405 0016733 310.1234 243.6125  1.86231384 43644
BEIDOU-3 M28 (C50)      
1 58654U 23207A   26138.22956414 -.00000045  00000+0  00000+0 0  9993
2 58654  55.7276  63.3136 0004089 333.0756  26.8913  1.86229592 16282
BEIDOU-3 M26 (C48)      
1 58655U 23207B   26139.10098066 -.00000044  00000+0  00000+0 0  9991
2 58655  55.7303  63.2706 0004211 311.8128  48.1429  1.86229602 16281
BEIDOU-3 M27 (C49)      
1 61187U 24168C   26139.53553944 -.00000058  00000+0  00000+0 0  9995
2 61187  54.4951 303.2201 0002179  47.1155 136.4661  1.86229873  8726
